STARLINK-30383          
1 57773C 23134C   26123.26715278  .00050907  00000+0  18449-2 0  1231
2 57773  43.0000 249.3455 0001448 255.9352 245.4042 15.27534590    11
STARLINK-30384          
1 57774C 23134D   26123.26645833 -.00015101  00000+0 -54704-3 0  1235
2 57774  43.0015 249.3935 0001251 272.1559 204.1205 15.27581623    15
STARLINK-30305          
1 57775C 23134E   26123.28590278  .00061162  00000+0  22148-2 0  1232
2 57775  42.9999 246.4246 0001430 269.9056  84.2945 15.27555397    10
STARLINK-30360          
1 57776C 23134F   26123.32201389  .00046029  00000+0  16665-2 0  1232
2 57776  43.0000 246.2380 0001326 252.6798 293.2585 15.27569582    12
STARLINK-30355          
1 57777C 23134G   26123.25743056  .00056583  00000+0  20493-2 0  1237
2 57777  43.0028 249.8128 0001457 258.0307   5.9042 15.27552767    16
STARLINK-30385          
1 57778C 23134H   26123.26506944  .00051469  00000+0  18654-2 0  1236
2 57778  43.0026 234.7851 0001631 256.6510 237.3606 15.27532252    19
STARLINK-30359          
1 57779C 23134J   26123.30881944  .00049171  00000+0  17800-2 0  1237
2 57779  42.9999 234.7636 0001391 256.0326  40.9665 15.27571409    10
STARLINK-30380          
1 57780C 23134K   26123.26506944  .00061606  00000+0  22328-2 0  1236
2 57780  43.0042 246.1946 0001878 261.8387 119.2088 15.27525992    10
STARLINK-30369          
1 57781C 23134L   26123.29006944  .00051444  00000+0  18625-2 0  1239
2 57781  43.0036 246.0023 0001243 256.7392 283.1242 15.27566397    11
STARLINK-30376          
1 57782C 23134M   26123.30743056  .00057222  00000+0  20739-2 0  1233
2 57782  43.0026 245.7813 0001375 268.9388  63.1433 15.27529490    11
STARLINK-30389          
1 57783C 23134N   26123.27201389  .00049648  00000+0  17970-2 0  1234
2 57783  43.0003 249.2943 0001161 271.0266 264.1177 15.27576912    12
STARLINK-30388          
1 57784C 23134P   26123.27479167  .00052779  00000+0  19128-2 0  1232
2 57784  43.0032 246.0143 0001451 255.7295 235.4232 15.27531661    10
STARLINK-30381          
1 57785C 23134Q   26123.31506944  .00054358  00000+0  19700-2 0  1233
2 57785  43.0036 245.9243 0001636 263.7617 350.2038 15.27531407    14
STARLINK-30382          
1 57786C 23134R   26123.30395833  .00058063  00000+0  21043-2 0  1236
2 57786  43.0013 245.7476 0001544 254.3241  79.8676 15.27529567    19
STARLINK-30378          
1 57787C 23134S   26123.32618056  .00051641  00000+0  18697-2 0  1230
2 57787  43.0011 246.0865 0001551 259.2113 359.2269 15.27565782    16
STARLINK-30387          
1 57788C 23134T   26123.28868056  .00052152  00000+0  18889-2 0  1234
2 57788  43.0023 234.7408 0001657 247.0172 355.6225 15.27552934    11
STARLINK-30372          
1 57789C 23134U   26123.26020833 -.00016942  00000+0 -61391-3 0  1232
2 57789  42.9996 130.1944 0001293 268.5579 111.4368 15.27572283    13
STARLINK-30367          
1 57791C 23134W   26123.27895833  .00057854  00000+0  20942-2 0  1237
2 57791  43.0044 246.1705 0001747 263.7344 172.5160 15.27568986    19
STARLINK-30374          
1 57809C 23138B   26123.30048611  .00043389  00000+0  15710-2 0  1234
2 57809  43.0041 285.4962 0001548 266.4671  90.3997 15.27566974    19
STARLINK-30394          
1 57810C 23138C   26123.33173611  .00048152  00000+0  17433-2 0  1235
2 57810  43.0040 285.5025 0001879 264.3798 186.7197 15.27568506    10
STARLINK-30379          
1 57811C 23138D   26123.29145833  .00032643  00000+0  11819-2 0  1236
2 57811  43.0025 285.7783 0001759 269.4430 298.6692 15.27574167    16
STARLINK-30395          
1 57812C 23138E   26123.30812500  .00041870  00000+0  15159-2 0  1234
2 57812  43.0012 285.7337 0001563 261.4507  17.2000 15.27570225    17
STARLINK-30403          
1 57813C 23138F   26123.31229167  .00043500  00000+0  15752-2 0  1238
2 57813  43.0021 285.7472 0001509 263.3337  24.1229 15.27564537    19
STARLINK-30413          
1 57814C 23138G   26123.28937500  .00038845  00000+0  14064-2 0  1233
2 57814  43.0025 286.3146 0001714 265.5545  71.7779 15.27570862    18
STARLINK-30398          
1 57815C 23138H   26123.30118056  .00035250  00000+0  12764-2 0  1236
2 57815  43.0011 285.9595 0001492 264.5658 258.0463 15.27570228    10
STARLINK-30386          
1 57816C 23138J   26123.28937500 -.00024868  00000+0 -90148-3 0  1235
2 57816  43.0013 286.0779 0001557 263.2608 173.1873 15.27562960    18
STARLINK-30391          
1 57817C 23138K   26123.32479167  .00045528  00000+0  16486-2 0  1237
2 57817  43.0008 285.9258 0001532 262.3564 347.8123 15.27564093    14
STARLINK-30401          
1 57818C 23138L   26123.27756944  .00032168  00000+0  11646-2 0  1232
2 57818  43.0008 286.2193 0001351 265.0339  70.9850 15.27576368    15
STARLINK-30390          
1 57819C 23138M   26123.30673611 -.00010032  00000+0 -36361-3 0  1236
2 57819  43.0002 286.1136 0001805 264.9227 210.4994 15.27559042    14
STARLINK-30409          
1 57820C 23138N   26123.29631944 -.00004834  00000+0 -17517-3 0  1234
2 57820  43.0046 285.5968 0001900 262.8896  28.6548 15.27563152    16
STARLINK-30415          
1 57821C 23138P   26123.27340278 -.00016230  00000+0 -58791-3 0  1232
2 57821  43.0030 286.4520 0001272 257.0565 331.1049 15.27584125    16
STARLINK-30407          
1 57823C 23138R   26123.29562500 -.00029089  00000+0 -10534-2 0  1238
2 57823  43.0009 180.4005 0001504 267.5133 244.0451 15.27599128    18
STARLINK-30408          
1 57824C 23138S   26123.31645833  .00032141  00000+0  11648-2 0  1231
2 57824  43.0041 285.4531 0001821 265.8223 157.8084 15.27542345    10
STARLINK-30377          
1 57825C 23138T   26123.29215278 -.00006941  00000+0 -25151-3 0  1231
2 57825  43.0043 285.5726 0001983 257.9732  38.9080 15.27565869    17
STARLINK-30422          
1 57826C 23138U   26123.30048611  .00033610  00000+0  12172-2 0  1238
2 57826  43.0019 285.8179 0001461 260.9609 314.4014 15.27565067    13
STARLINK-30402          
1 57827C 23138V   26123.29145833 -.00000502  00000+0 -18179-4 0  1232
2 57827  43.0039 285.7407 0001980 267.1890 315.1236 15.27557387    16
STARLINK-30411          
1 57828C 23138W   26123.32756944  .00026630  00000+0  96490-3 0  1237
2 57828  43.0047 285.4654 0001758 265.3555 177.0090 15.27552201    11
STARLINK-30418          
1 57829C 23138X   26123.29562500  .00015656  00000+0  56743-3 0  1230
2 57829  43.0044 285.6004 0001820 267.1508  27.6292 15.27548962    11
STARLINK-30285          
1 57840C 23141A   26123.29909722  .00355300  00000+0  11446-1 0  1230
2 57840  53.1606  30.4837 0001038  80.8038  99.7300 15.31466183    18
STARLINK-30410          
1 57841C 23141B   26123.26576389  .00049689  00000+0  15980-2 0  1235
2 57841  53.1610  30.5537 0000985  80.7421 224.3922 15.31674738    10
STARLINK-30435          
1 57842C 23141C   26123.32270833 -.00003061  00000+0 -10314-3 0  1231
2 57842  53.1607  30.3899 0001126  81.3590 140.5613 15.30195919    12
STARLINK-30423          
1 57843C 23141D   26123.29701389  .00031890  00000+0  10254-2 0  1234
2 57843  53.1604  30.4941 0001104  66.1204 359.9302 15.31687834    12
STARLINK-30292          
1 57844C 23141E   26123.33034722 -.00006366  00000+0 -21452-3 0  1235
2 57844  53.1593  29.9423 0000995  89.5225 110.9927 15.30199267    12
STARLINK-30416          
1 57847C 23141H   26123.27826389  .00040815  00000+0  13756-2 0  1231
2 57847  53.1609  30.6203 0001135  85.1197 304.0749 15.30171226    18
STARLINK-30426          
1 57848C 23141J   26123.29284722  .00029389  00000+0  99050-3 0  1238
2 57848  53.1598  30.5307 0001125  72.1315 304.5629 15.30177189    13
STARLINK-30430          
1 57849C 23141K   26123.27062500  .00043773  00000+0  14752-2 0  1233
2 57849  53.1607  30.6628 0001238  70.5569 293.9500 15.30171886    17
STARLINK-30425          
1 57850C 23141L   26123.29701389  .00025270  00000+0  85147-3 0  1231
2 57850  53.1594  30.5525 0000995  79.6263 302.5684 15.30187253    14
STARLINK-30405          
1 57851C 23141M   26123.32409722  .00012242  00000+0  39369-3 0  1232
2 57851  53.1607  30.3727 0001053  85.5376 207.0713 15.31693873    12
STARLINK-30431          
1 57852C 23141N   26123.28937500  .00027900  00000+0  94030-3 0  1231
2 57852  53.1591  30.1852 0001053  73.1759 232.4386 15.30178656    14
STARLINK-30404          
1 57853C 23141P   26123.29979167  .00022546  00000+0  75967-3 0  1237
2 57853  53.1591  30.0895 0000995  82.7178 303.5688 15.30189363    18
STARLINK-30412          
1 57854C 23141Q   26123.32201389  .00014712  00000+0  49577-3 0  1230
2 57854  53.1591  30.1013 0001177  72.2055  18.4025 15.30188686    17
STARLINK-30392          
1 57855C 23141R   26123.30604167  .00021599  00000+0  72851-3 0  1232
2 57855  53.1591  30.1403 0001067  91.2292 288.7921 15.30157428    10
STARLINK-30291          
1 57856C 23141S   26123.27131944  .00049002  00000+0  15748-2 0  1237
2 57856  53.1603  30.5181 0001174  67.9450  10.6581 15.31697676    16
STARLINK-30424          
1 57857C 23141T   26123.28034722 -.00018030  00000+0 -60762-3 0  1231
2 57857  53.1605   4.5537 0001211  74.6677  30.5734 15.30203335    18
STARLINK-30290          
1 57858C 23141U   26123.29701389  .00021007  00000+0  70792-3 0  1233
2 57858  53.1593  30.2848 0001192  82.9943 194.9213 15.30185156    19
STARLINK-30414          
1 57859C 23141V   26123.24909722  .00055942  00000+0  18854-2 0  1235
2 57859  53.1592  30.4727 0001128  81.7588 309.5118 15.30165333    11
STARLINK-30272          
1 57860C 23141W   26123.31993056  .00005704  00000+0  18356-3 0  1237
2 57860  53.1605  30.3398 0001408  84.0763 237.0462 15.31677905    14
STARLINK-30432          
1 57864C 23144A   26123.27409722 -.00015018  00000+0 -54401-3 0  1233
2 57864  43.0046 336.7964 0001828 268.5812 217.7049 15.27580829    16
STARLINK-30427          
1 57865C 23144B   26123.32270833 -.00010578  00000+0 -38285-3 0  1237
2 57865  43.0047 336.5648 0001706 265.8461 106.8627 15.27606240    16
